[{"OBJECT_NAME":"OBJECT H","OBJECT_ID":"2023-091H","EPOCH":"2026-03-09T22:34:46.487712","MEAN_MOTION":15.26380881,"ECCENTRICITY":0.00117854,"INCLINATION":97.5166,"RA_OF_ASC_NODE":131.4381,"ARG_OF_PERICENTER":104.1062,"MEAN_ANOMALY":256.1487,"EPHEMERIS_TYPE":0,"CLASSIFICATION_TYPE":"U","NORAD_CAT_ID":57173,"ELEMENT_SET_NO":999,"REV_AT_EPOCH":14915,"BSTAR":0.00056321781,"MEAN_MOTION_DOT":0.00014617,"MEAN_MOTION_DDOT":0},{"OBJECT_NAME":"STARLINK-30880","OBJECT_ID":"2023-171C","EPOCH":"2026-03-09T22:00:01.999584","MEAN_MOTION":15.2672663,"ECCENTRICITY":0.00016401,"INCLINATION":42.9994,"RA_OF_ASC_NODE":283.3086,"ARG_OF_PERICENTER":266.0454,"MEAN_ANOMALY":208.5229,"EPHEMERIS_TYPE":0,"CLASSIFICATION_TYPE":"U","NORAD_CAT_ID":58232,"ELEMENT_SET_NO":999,"REV_AT_EPOCH":563,"BSTAR":0.00085727415,"MEAN_MOTION_DOT":0.00022797,"MEAN_MOTION_DDOT":0}]
